COMMENT,ORIGINATOR,NORAD_CAT_ID,OBJECT_NAME,OBJECT_TYPE,CLASSIFICATION_TYPE,INTLDES,EPOCH,EPOCH_MICROSECONDS,MEAN_MOTION,ECCENTRICITY,INCLINATION,RA_OF_ASC_NODE,ARG_OF_PERICENTER,MEAN_ANOMALY,EPHEMERIS_TYPE,ELEMENT_SET_NO,REV_AT_EPOCH,BSTAR,MEAN_MOTION_DOT,MEAN_MOTION_DDOT,FILE,TLE_LINE0,TLE_LINE1,TLE_LINE2,OBJECT_ID,OBJECT_NUMBER,SEMIMAJOR_AXIS,PERIOD,APOGEE,PERIGEE,DECAYED
"GENERATED VIA SPACETRACK.ORG API","18 SPCS","55092","SPACEBEE-166","PAYLOAD","U","23001CM","2024-05-19 03:35:28","630752","15.48210492","0.0010369","97.4203","206.6613","238.4352","121.5887","0","999","7665","0.0019164","0.00102155","0","4321746","0 SPACEBEE-166","1 55092U 23001CM  24140.14963693  .00102155  00000-0  19164-2 0  9996","2 55092  97.4203 206.6613 0010369 238.4352 121.5887 15.48210492 76650","2023-001CM","55092","6800.098","93.011","429.014","414.912","0"
"GENERATED VIA SPACETRACK.ORG API","18 SPCS","55092","SPACEBEE-166","PAYLOAD","U","23001CM","2024-05-19 17:33:04","996512","15.48351356","0.0010391","97.4203","207.2588","237.1831","122.8419","0","999","7674","0.0022241","0.00119413","0","4321921","0 SPACEBEE-166","1 55092U 23001CM  24140.73130783  .00119413  00000-0  22241-2 0  9992","2 55092  97.4203 207.2588 0010391 237.1831 122.8419 15.48351356 76741","2023-001CM","55092","6799.686","93.002","428.616","414.485","0"
"GENERATED VIA SPACETRACK.ORG API","18 SPCS","55092","SPACEBEE-166","PAYLOAD","U","23001CM","2024-05-20 02:51:26","652672","15.48447435","0.0010453","97.4203","207.6568","235.5827","124.4435","0","999","7680","0.0022212","0.00119663","0","4322688","0 SPACEBEE-166","1 55092U 23001CM  24141.11905848  .00119663  00000-0  22212-2 0  9992","2 55092  97.4203 207.6568 0010453 235.5827 124.4435 15.48447435 76806","2023-001CM","55092","6799.404","92.996","428.377","414.162","0"
"GENERATED VIA SPACETRACK.ORG API","18 SPCS","55092","SPACEBEE-166","PAYLOAD","U","23001CM","2024-05-21 03:40:15","213504","15.48673288","0.0010537","97.42","208.7188","232.3973","127.6322","0","999","7696","0.001994","0.00108109","0","4323211","0 SPACEBEE-166","1 55092U 23001CM  24142.15295386  .00108109  00000-0  19940-2 0  9993","2 55092  97.4200 208.7188 0010537 232.3973 127.6322 15.48673288 76967","2023-001CM","55092","6798.743","92.983","427.772","413.444","0"
"GENERATED VIA SPACETRACK.ORG API","18 SPCS","55092","SPACEBEE-166","PAYLOAD","U","23001CM","2024-05-21 03:40:15","213504","15.48673288","0.0010537","97.42","208.7188","232.3973","127.6322","0","999","7696","0.001994","0.00108109","0","4323618","0 SPACEBEE-166","1 55092U 23001CM  24142.15295386  .00108109  00000-0  19940-2 0  9993","2 55092  97.4200 208.7188 0010537 232.3973 127.6322 15.48673288 76967","2023-001CM","55092","6798.743","92.983","427.772","413.444","0"
"GENERATED VIA SPACETRACK.ORG API","18 SPCS","55092","SPACEBEE-166","PAYLOAD","U","23001CM","2024-05-21 17:37:37","64928","15.4878979","0.0010517","97.42","209.3166","231.5792","128.4515","0","999","7705","0.001868","0.001016","0","4323884","0 SPACEBEE-166","1 55092U 23001CM  24142.73445677  .00101600  00000-0  18680-2 0  9996","2 55092  97.4200 209.3166 0010517 231.5792 128.4515 15.48789790 77058","2023-001CM","55092","6798.402","92.976","427.417","413.117","0"
"GENERATED VIA SPACETRACK.ORG API","18 SPCS","55092","SPACEBEE-166","PAYLOAD","U","23001CM","2024-05-22 02:55:49","269792","15.48881006","0.0010602","97.4198","209.7146","229.9112","130.121","0","999","7711","0.0019399","0.00105911","0","4324498","0 SPACEBEE-166","1 55092U 23001CM  24143.12209803  .00105911  00000-0  19399-2 0  9996","2 55092  97.4198 209.7146 0010602 229.9112 130.1210 15.48881006 77110","2023-001CM","55092","6798.135","92.970","427.208","412.793","0"
"GENERATED VIA SPACETRACK.ORG API","18 SPCS","55092","SPACEBEE-166","PAYLOAD","U","23001CM","2024-05-23 03:44:13","581600","15.49082653","0.0010782","97.4194","210.7768","226.8338","133.2013","0","999","7727","0.0016513","0.00090611","0","4324903","0 SPACEBEE-166","1 55092U 23001CM  24144.15571275  .00090611  00000-0  16513-2 0  9990","2 55092  97.4194 210.7768 0010782 226.8338 133.2013 15.49082653 77277","2023-001CM","55092","6797.545","92.958","426.739","412.081","0"
"GENERATED VIA SPACETRACK.ORG API","18 SPCS","55092","SPACEBEE-166","PAYLOAD","U","23001CM","2024-05-23 11:29:18","765024","15.49145716","0.001074","97.4191","211.1091","226.7276","133.3079","0","999","7732","0.0018059","0.0009943","0","4325336","0 SPACEBEE-166","1 55092U 23001CM  24144.47868941  .00099430  00000-0  18059-2 0  9999","2 55092  97.4191 211.1091 0010740 226.7276 133.3079 15.49145716 77321","2023-001CM","55092","6797.361","92.954","426.526","411.926","0"
"GENERATED VIA SPACETRACK.ORG API","18 SPCS","55092","SPACEBEE-166","PAYLOAD","U","23001CM","2024-05-23 16:08:21","261120","15.49190386","0.0010735","97.4191","211.3084","226.3621","133.674","0","999","7735","0.0017778","0.00098017","0","4325447","0 SPACEBEE-166","1 55092U 23001CM  24144.67246830  .00098017  00000-0  17778-2 0  9995","2 55092  97.4191 211.3084 0010735 226.3621 133.6740 15.49190386 77353","2023-001CM","55092","6797.230","92.952","426.392","411.798","0"
"GENERATED VIA SPACETRACK.ORG API","18 SPCS","55092","SPACEBEE-166","PAYLOAD","U","23001CM","2024-05-23 16:08:21","261120","15.49190386","0.0010735","97.4191","211.3084","226.3621","133.674","0","999","7735","0.0017778","0.00098017","0","4325574","0 SPACEBEE-166","1 55092U 23001CM  24144.67246830  .00098017  00000-0  17778-2 0  9995","2 55092  97.4191 211.3084 0010735 226.3621 133.6740 15.49190386 77353","2023-001CM","55092","6797.230","92.952","426.392","411.798","0"
"GENERATED VIA SPACETRACK.ORG API","18 SPCS","55092","SPACEBEE-166","PAYLOAD","U","23001CM","2024-05-24 02:59:25","363104","15.49287137","0.0010821","97.4189","211.7728","224.6334","135.4047","0","999","7742","0.0017426","0.00096384","0","4326215","0 SPACEBEE-166","1 55092U 23001CM  24145.12459911  .00096384  00000-0  17426-2 0  9997","2 55092  97.4189 211.7728 0010821 224.6334 135.4047 15.49287137 77426","2023-001CM","55092","6796.947","92.946","426.167","411.457","0"
"GENERATED VIA SPACETRACK.ORG API","18 SPCS","55092","SPACEBEE-166","PAYLOAD","U","23001CM","2024-05-24 16:56:26","882880","15.49420597","0.0010842","97.4181","212.3702","222.7704","137.2704","0","999","7751","0.0018737","0.00104231","0","4326386","0 SPACEBEE-166","1 55092U 23001CM  24145.70586670  .00104231  00000-0  18737-2 0  9991","2 55092  97.4181 212.3702 0010842 222.7704 137.2704 15.49420597 77519","2023-001CM","55092","6796.557","92.938","425.791","411.053","0"
"GENERATED VIA SPACETRACK.ORG API","18 SPCS","55092","SPACEBEE-166","PAYLOAD","U","23001CM","2024-05-24 16:56:26","882880","15.49420597","0.0010842","97.4181","212.3702","222.7704","137.2704","0","999","7751","0.0018737","0.00104231","0","4326555","0 SPACEBEE-166","1 55092U 23001CM  24145.70586670  .00104231  00000-0  18737-2 0  9991","2 55092  97.4181 212.3702 0010842 222.7704 137.2704 15.49420597 77519","2023-001CM","55092","6796.557","92.938","425.791","411.053","0"
"GENERATED VIA SPACETRACK.ORG API","18 SPCS","55092","SPACEBEE-166","PAYLOAD","U","23001CM","2024-05-25 03:47:25","443168","15.49500869","0.0010901","97.4179","212.8351","221.2462","138.7967","0","999","7758","0.0014913","0.00082954","0","4326738","0 SPACEBEE-166","1 55092U 23001CM  24146.15793337  .00082954  00000-0  14913-2 0  9990","2 55092  97.4179 212.8351 0010901 221.2462 138.7967 15.49500869 77587","2023-001CM","55092","6796.322","92.933","425.596","410.779","0"
"GENERATED VIA SPACETRACK.ORG API","18 SPCS","55092","SPACEBEE-166","PAYLOAD","U","23001CM","2024-05-25 03:47:25","443168","15.49500869","0.0010901","97.4179","212.8351","221.2462","138.7967","0","999","7758","0.0014913","0.00082954","0","4327213","0 SPACEBEE-166","1 55092U 23001CM  24146.15793337  .00082954  00000-0  14913-2 0  9990","2 55092  97.4179 212.8351 0010901 221.2462 138.7967 15.49500869 77587","2023-001CM","55092","6796.322","92.933","425.596","410.779","0"
"GENERATED VIA SPACETRACK.ORG API","18 SPCS","55092","SPACEBEE-166","PAYLOAD","U","23001CM","2024-05-26 03:02:15","419040","15.49674093","0.0011014","97.4178","213.8323","216.7392","143.3106","0","999","7773","0.0015617","0.00087458","0","4327698","0 SPACEBEE-166","1 55092U 23001CM  24147.12656735  .00087458  00000-0  15617-2 0  9994","2 55092  97.4178 213.8323 0011014 216.7392 143.3106 15.49674093 77738","2023-001CM","55092","6795.816","92.923","425.166","410.196","0"
"GENERATED VIA SPACETRACK.ORG API","18 SPCS","55092","SPACEBEE-166","PAYLOAD","U","23001CM","2024-05-26 03:02:15","419040","15.49674093","0.0011014","97.4178","213.8323","216.7392","143.3106","0","999","7773","0.0015617","0.00087458","0","4328092","0 SPACEBEE-166","1 55092U 23001CM  24147.12656735  .00087458  00000-0  15617-2 0  9994","2 55092  97.4178 213.8323 0011014 216.7392 143.3106 15.49674093 77738","2023-001CM","55092","6795.816","92.923","425.166","410.196","0"
"GENERATED VIA SPACETRACK.ORG API","18 SPCS","55092","SPACEBEE-166","PAYLOAD","U","23001CM","2024-05-26 16:59:05","328384","15.49759139","0.0011012","97.4175","214.4306","215.0346","145.0181","0","999","7782","0.0013601","0.00076277","0","4328252","0 SPACEBEE-166","1 55092U 23001CM  24147.70770056  .00076277  00000-0  13601-2 0  9999","2 55092  97.4175 214.4306 0011012 215.0346 145.0181 15.49759139 77829","2023-001CM","55092","6795.567","92.918","424.915","409.949","0"
"GENERATED VIA SPACETRACK.ORG API","18 SPCS","55092","SPACEBEE-166","PAYLOAD","U","23001CM","2024-05-26 16:59:05","328384","15.49759139","0.0011012","97.4175","214.4306","215.0346","145.0181","0","999","7782","0.0013601","0.00076277","0","4328412","0 SPACEBEE-166","1 55092U 23001CM  24147.70770056  .00076277  00000-0  13601-2 0  9999","2 55092  97.4175 214.4306 0011012 215.0346 145.0181 15.49759139 77829","2023-001CM","55092","6795.567","92.918","424.915","409.949","0"
